ORBCOMM FM37 [-]        
1 33064U 08031E   23272.48822918  .00002781  00000+0  43772-3 0  9999
2 33064  48.4404  71.4081 0006437 217.9205 167.5800 14.75114569821718
ORBCOMM FM40 [-]        
1 33065U 08031F   23272.45950050  .00003216  00000+0  48984-3 0  9990
2 33065  48.4427  62.8423 0008009 224.2986 154.6919 14.76145549821847
VESSELSAT 1 [-]         
1 37840U 11058C   23272.41063180  .00000442  00000+0  97264-4 0  9997
2 37840  19.9620 285.5860 0013855 133.2977 226.8584 14.11063679617893
ORBCOMM FM109 [+]       
1 40086U 14040A   23271.60440354  .00001038  00000+0  27177-3 0  9996
2 40086  47.0034  94.8063 0002221 300.6473  59.4192 14.55930088489541
ORBCOMM FM107 [+]       
1 40087U 14040B   23271.63860978  .00001033  00000+0  27056-3 0  9999
2 40087  47.0051  95.5758 0001906 264.1553  95.9114 14.55927967489622
ORBCOMM FM106 [-]       
1 40088U 14040C   23272.45379584  .00001675  00000+0  33501-3 0  9993
2 40088  47.0623 321.1558 0017569  38.7379 321.4767 14.66026152491629
ORBCOMM FM111 [-]       
1 40089U 14040D   23272.29831842  .00002943  00000+0  40853-3 0  9993
2 40089  47.0036 248.7200 0032770  83.6450 276.8175 14.80001995497183
ORBCOMM FM104 [-]       
1 40090U 14040E   23272.00269821  .00000886  00000+0  24466-3 0  9992
2 40090  47.0050 120.3213 0017557 223.7697 136.1796 14.54487819489357
